{
  "type": "FeatureCollection",
  "features": [
    {
      "type": "Feature",
      "properties": {
        "norad_id": 44709,
        "name": "BEIDOU-3 IGSO-3 (C40)",
        "group": "gnss",
        "lat": -49.1090498164075,
        "lon": 156.40001458635604,
        "alt_km": 35692.613430917205,
        "timestamp": "2025-12-06T22:38:42.972324+00:00",
        "meta_object_name": "BEIDOU-3 IGSO-3 (C40)",
        "meta_object_id": "2019-073A",
        "meta_epoch": "2025-11-20T07:11:22.740000",
        "meta_mean_motion": 1.00250097,
        "meta_eccentricity": 0.0044538,
        "meta_inclination": 55.163,
        "meta_ra_of_asc_node": 283.159,
        "meta_arg_of_pericenter": 191.5856,
        "meta_mean_anomaly": 168.2409,
        "meta_ephemeris_type": 0,
        "meta_classification_type": "U",
        "meta_norad_cat_id": 44709,
        "meta_element_set_no": 999,
        "meta_rev_at_epoch": 2236,
        "meta_bstar": 0,
        "meta_mean_motion_dot": -2.06e-06,
        "meta_mean_motion_ddot": 0,
        "tle_line1": "1 44709U 19073A   25324.29956875 -.00000206  00000+0  00000+0 0  9998",
        "tle_line2": "2 44709  55.1630 283.1590 0044538 191.5856 168.2409  1.00250097 22360"
      },
      "geometry": {
        "type": "Point",
        "coordinates": [
          156.40001458635604,
          -49.1090498164075
        ]
      }
    },
    {
      "type": "Feature",
      "properties": {
        "norad_id": 44793,
        "name": "BEIDOU-3 M22 (C44)",
        "group": "gnss",
        "lat": 45.133460963431006,
        "lon": -6.8094684004875745,
        "alt_km": 21509.985115622545,
        "timestamp": "2025-12-06T22:38:42.972338+00:00",
        "meta_object_name": "BEIDOU-3 M22 (C44)",
        "meta_object_id": "2019-078A",
        "meta_epoch": "2025-12-05T05:48:12.053952",
        "meta_mean_motion": 1.86231816,
        "meta_eccentricity": 0.00057288,
        "meta_inclination": 54.1154,
        "meta_ra_of_asc_node": 306.6493,
        "meta_arg_of_pericenter": 22.8633,
        "meta_mean_anomaly": 337.1445,
        "meta_ephemeris_type": 0,
        "meta_classification_type": "U",
        "meta_norad_cat_id": 44793,
        "meta_element_set_no": 999,
        "meta_rev_at_epoch": 4103,
        "meta_bstar": 0,
        "meta_mean_motion_dot": -6.9e-07,
        "meta_mean_motion_ddot": 0,
        "tle_line1": "1 44793U 19078A   25339.24180618 -.00000069  00000+0  00000+0 0  9998",
        "tle_line2": "2 44793  54.1154 306.6493 0005728  22.8633 337.1445  1.86231816 41037"
      },
      "geometry": {
        "type": "Point",
        "coordinates": [
          -6.8094684004875745,
          45.133460963431006
        ]
      }
    },
    {
      "type": "Feature",
      "properties": {
        "norad_id": 44794,
        "name": "BEIDOU-3 M21 (C43)",
        "group": "gnss",
        "lat": -24.876036917103516,
        "lon": -73.08875701825622,
        "alt_km": 21523.455799536387,
        "timestamp": "2025-12-06T22:38:42.972349+00:00",
        "meta_object_name": "BEIDOU-3 M21 (C43)",
        "meta_object_id": "2019-078B",
        "meta_epoch": "2025-12-05T21:59:25.852416",
        "meta_mean_motion": 1.86227538,
        "meta_eccentricity": 0.00039607,
        "meta_inclination": 54.088,
        "meta_ra_of_asc_node": 306.5908,
        "meta_arg_of_pericenter": 10.7864,
        "meta_mean_anomaly": 349.2048,
        "meta_ephemeris_type": 0,
        "meta_classification_type": "U",
        "meta_norad_cat_id": 44794,
        "meta_element_set_no": 999,
        "meta_rev_at_epoch": 4105,
        "meta_bstar": 0,
        "meta_mean_motion_dot": -6.9e-07,
        "meta_mean_motion_ddot": 0,
        "tle_line1": "1 44794U 19078B   25339.91627144 -.00000069  00000+0  00000+0 0  9993",
        "tle_line2": "2 44794  54.0880 306.5908 0003960  10.7864 349.2048  1.86227538 41052"
      },
      "geometry": {
        "type": "Point",
        "coordinates": [
          -73.08875701825622,
          -24.876036917103516
        ]
      }
    },
    {
      "type": "Feature",
      "properties": {
        "norad_id": 44850,
        "name": "COSMOS 2544 (759)",
        "group": "gnss",
        "lat": -51.095858932049346,
        "lon": -65.42323750351048,
        "alt_km": 19101.208481991634,
        "timestamp": "2025-12-06T22:38:42.972360+00:00",
        "meta_object_name": "COSMOS 2544 (759)",
        "meta_object_id": "2019-088A",
        "meta_epoch": "2025-12-05T05:23:01.027680",
        "meta_mean_motion": 2.1310179,
        "meta_eccentricity": 0.00137742,
        "meta_inclination": 65.456,
        "meta_ra_of_asc_node": 80.2099,
        "meta_arg_of_pericenter": 249.0312,
        "meta_mean_anomaly": 110.8229,
        "meta_ephemeris_type": 0,
        "meta_classification_type": "U",
        "meta_norad_cat_id": 44850,
        "meta_element_set_no": 999,
        "meta_rev_at_epoch": 4658,
        "meta_bstar": 0,
        "meta_mean_motion_dot": -2e-07,
        "meta_mean_motion_ddot": 0,
        "tle_line1": "1 44850U 19088A   25339.22431745 -.00000020  00000+0  00000+0 0  9998",
        "tle_line2": "2 44850  65.4560  80.2099 0013774 249.0312 110.8229  2.13101790 46580"
      },
      "geometry": {
        "type": "Point",
        "coordinates": [
          -65.42323750351048,
          -51.095858932049346
        ]
      }
    },
    {
      "type": "Feature",
      "properties": {
        "norad_id": 44864,
        "name": "BEIDOU-3 M19 (C41)",
        "group": "gnss",
        "lat": 13.040265534658694,
        "lon": -119.68460035627355,
        "alt_km": 21551.54017019816,
        "timestamp": "2025-12-06T22:38:42.972371+00:00",
        "meta_object_name": "BEIDOU-3 M19 (C41)",
        "meta_object_id": "2019-090A",
        "meta_epoch": "2025-12-02T22:27:31.551840",
        "meta_mean_motion": 1.86231053,
        "meta_eccentricity": 0.00175607,
        "meta_inclination": 56.3847,
        "meta_ra_of_asc_node": 69.2872,
        "meta_arg_of_pericenter": 284.9296,
        "meta_mean_anomaly": 72.494,
        "meta_ephemeris_type": 0,
        "meta_classification_type": "U",
        "meta_norad_cat_id": 44864,
        "meta_element_set_no": 999,
        "meta_rev_at_epoch": 4057,
        "meta_bstar": 0,
        "meta_mean_motion_dot": -4.9e-07,
        "meta_mean_motion_ddot": 0,
        "tle_line1": "1 44864U 19090A   25336.93578185 -.00000049  00000+0  00000+0 0  9992",
        "tle_line2": "2 44864  56.3847  69.2872 0017560 284.9296  72.4940  1.86231053 40575"
      },
      "geometry": {
        "type": "Point",
        "coordinates": [
          -119.68460035627355,
          13.040265534658694
        ]
      }
    },
    {
      "type": "Feature",
      "properties": {
        "norad_id": 44865,
        "name": "BEIDOU-3 M20 (C42)",
        "group": "gnss",
        "lat": -53.181266876606216,
        "lon": -48.29819362592644,
        "alt_km": 21504.25750378242,
        "timestamp": "2025-12-06T22:38:42.972385+00:00",
        "meta_object_name": "BEIDOU-3 M20 (C42)",
        "meta_object_id": "2019-090B",
        "meta_epoch": "2025-12-03T10:37:23.867040",
        "meta_mean_motion": 1.86231029,
        "meta_eccentricity": 0.00147135,
        "meta_inclination": 56.3867,
        "meta_ra_of_asc_node": 69.3045,
        "meta_arg_of_pericenter": 297.7194,
        "meta_mean_anomaly": 129.1388,
        "meta_ephemeris_type": 0,
        "meta_classification_type": "U",
        "meta_norad_cat_id": 44865,
        "meta_element_set_no": 999,
        "meta_rev_at_epoch": 4057,
        "meta_bstar": 0,
        "meta_mean_motion_dot": -5e-07,
        "meta_mean_motion_ddot": 0,
        "tle_line1": "1 44865U 19090B   25337.44263735 -.00000050  00000+0  00000+0 0  9994",
        "tle_line2": "2 44865  56.3867  69.3045 0014713 297.7194 129.1388  1.86231029 40576"
      },
      "geometry": {
        "type": "Point",
        "coordinates": [
          -48.29819362592644,
          -53.181266876606216
        ]
      }
    },
    {
      "type": "Feature",
      "properties": {
        "norad_id": 45344,
        "name": "BEIDOU-3 G2 (C60)",
        "group": "gnss",
        "lat": 2.494541947495869,
        "lon": 135.5786886854703,
        "alt_km": 35810.8797867667,
        "timestamp": "2025-12-06T22:38:42.972397+00:00",
        "meta_object_name": "BEIDOU-3 G2 (C60)",
        "meta_object_id": "2020-017A",
        "meta_epoch": "2025-12-05T15:47:23.962272",
        "meta_mean_motion": 1.00262828,
        "meta_eccentricity": 0.00053913,
        "meta_inclination": 2.4835,
        "meta_ra_of_asc_node": 43.7472,
        "meta_arg_of_pericenter": 266.1366,
        "meta_mean_anomaly": 81.6514,
        "meta_ephemeris_type": 0,
        "meta_classification_type": "U",
        "meta_norad_cat_id": 45344,
        "meta_element_set_no": 999,
        "meta_rev_at_epoch": 2131,
        "meta_bstar": 0,
        "meta_mean_motion_dot": -1.29e-06,
        "meta_mean_motion_ddot": 0,
        "tle_line1": "1 45344U 20017A   25339.65791623 -.00000129  00000+0  00000+0 0  9992",
        "tle_line2": "2 45344   2.4835  43.7472 0005391 266.1366  81.6514  1.00262828 21310"
      },
      "geometry": {
        "type": "Point",
        "coordinates": [
          135.5786886854703,
          2.494541947495869
        ]
      }
    }
  ]
}